[{"OBJECT_NAME":"STARLINK-6157","OBJECT_ID":"2023-061F","EPOCH":"2026-03-09T22:00:01.999584","MEAN_MOTION":15.1513954,"ECCENTRICITY":0.00021581,"INCLINATION":43,"RA_OF_ASC_NODE":195.7762,"ARG_OF_PERICENTER":270.2973,"MEAN_ANOMALY":110.2271,"EPHEMERIS_TYPE":0,"CLASSIFICATION_TYPE":"U","NORAD_CAT_ID":56379,"ELEMENT_SET_NO":999,"REV_AT_EPOCH":572,"BSTAR":0.064935447,"MEAN_MOTION_DOT":0.01347423,"MEAN_MOTION_DDOT":0},{"OBJECT_NAME":"SPACEMOBILE-002","OBJECT_ID":"2024-163D","EPOCH":"2026-03-09T08:46:52.476096","MEAN_MOTION":15.21108485,"ECCENTRICITY":0.00071237,"INCLINATION":52.9822,"RA_OF_ASC_NODE":48.2355,"ARG_OF_PERICENTER":175.9464,"MEAN_ANOMALY":184.159,"EPHEMERIS_TYPE":0,"CLASSIFICATION_TYPE":"U","NORAD_CAT_ID":61048,"ELEMENT_SET_NO":999,"REV_AT_EPOCH":8257,"BSTAR":0.00072579441,"MEAN_MOTION_DOT":0.00016068,"MEAN_MOTION_DDOT":0}]
